IRIDIUM 155             
1 43573U 18061E   24323.31151028  .00000330  00000+0  11070-3 0  9990
2 43573  86.3923 297.3289 0002416  82.2433 277.9037 14.34218394330819
IRIDIUM 154             
1 43574U 18061F   24323.29248105  .00000090  00000+0  25139-4 0  9996
2 43574  86.3929 297.4419 0002252  90.7839 269.3615 14.34216324330867
IRIDIUM 163             
1 43575U 18061G   24323.34322273 -.00000110  00000+0 -46328-4 0  9990
2 43575  86.3924 297.3545 0002335  88.4267 271.7197 14.34216978330848
IRIDIUM 156             
1 43576U 18061H   24323.45738895 -.00000185  00000+0 -73076-4 0  9996
2 43576  86.3927 297.3132 0002370  78.8215 281.3247 14.34216516330851
IRIDIUM 164             
1 43577U 18061J   24323.29882290  .00000308  00000+0  10291-3 0  9992
2 43577  86.3927 297.4106 0002044  85.7310 274.4119 14.34216638330873
IRIDIUM 159             
1 43578U 18061K   24323.33688058  .00000066  00000+0  16680-4 0  9994
2 43578  86.3926 297.3435 0002132  89.5014 270.6426 14.34216727330843
IRIDIUM 180             
1 43922U 19002A   24323.47592585  .00000531  00000+0  18266-3 0  9995
2 43922  86.3994 234.1382 0002224  84.0931 276.0518 14.34215864306476
IRIDIUM 176             
1 43923U 19002B   24323.26861649  .00001873  00000+0  29298-3 0  9990
2 43923  86.6122 234.2339 0002567  94.5262 265.6248 14.72261697314514
IRIDIUM 168             
1 43924U 19002C   24323.53934124  .00000570  00000+0  19652-3 0  9996
2 43924  86.3996 234.1728 0002205  83.2086 276.9361 14.34217095306467
IRIDIUM 173             
1 43925U 19002D   24323.24758166  .00000483  00000+0  16541-3 0  9992
2 43925  86.3992 234.2071 0002183  82.6477 277.4967 14.34220331306407
IRIDIUM 169             
1 43926U 19002E   24323.26093827  .00000649  00000+0  20574-3 0  9996
2 43926  86.4207 265.8261 0004128  79.7912 280.3752 14.38605236307424
IRIDIUM 172             
1 43927U 19002F   24323.52031413  .00000501  00000+0  17171-3 0  9995
2 43927  86.3993 234.0995 0002140  85.2701 274.8739 14.34219976306451
IRIDIUM 175             
1 43928U 19002G   24323.53506641  .00001539  00000+0  24011-3 0  9990
2 43928  86.1550 198.5985 0002855  58.6346 301.5150 14.72253085314549
IRIDIUM 171             
1 43929U 19002H   24323.50128467  .00000552  00000+0  19004-3 0  9994
2 43929  86.4002 234.3499 0001932  75.9217 284.2194 14.34218345306441
IRIDIUM 170             
1 43930U 19002J   24323.54668093  .00001865  00000+0  29168-3 0  9994
2 43930  86.6123 234.1230 0002236  86.2474 273.8999 14.72269779314566
IRIDIUM 167             
1 43931U 19002K   24323.49494278  .00000521  00000+0  17914-3 0  9995
2 43931  86.3995 234.1273 0002238  73.9511 286.1931 14.34217763306440
IRIDIUM 181             
1 56726U 23068S   24323.54441537  .00000111  00000+0  26989-4 0  9992
2 56726  86.8588 295.3471 0002178  82.0327 278.1122 14.43591467 79409
IRIDIUM 177             
1 56727U 23068T   24323.49214875  .00002562  00000+0  33375-3 0  9998
2 56727  86.1988 242.0674 0002795  72.1066 288.0459 14.80212504 81203
IRIDIUM 174             
1 56728U 23068U   24323.48669093  .00002617  00000+0  34097-3 0  9997
2 56728  86.1995 242.1859 0002368  88.1446 272.0047 14.80223985 81204
IRIDIUM 178             
1 56729U 23068V   24323.27846883  .00002464  00000+0  32085-3 0  9994
2 56729  86.5763 267.0469 0002731  74.9241 285.2283 14.80233167 81172
IRIDIUM 179             
1 56730U 23068W   24323.40816777  .00002362  00000+0  30775-3 0  9991
2 56730  86.6765 273.0707 0002860  86.3210 273.8338 14.80183869 81194
